[{"OBJECT_NAME":"SL-16 R/B","OBJECT_ID":"1993-059B","EPOCH":"2026-03-10T06:04:44.813280","MEAN_MOTION":14.17231574,"ECCENTRICITY":0.001851,"INCLINATION":70.9927,"RA_OF_ASC_NODE":9.9371,"ARG_OF_PERICENTER":215.7825,"MEAN_ANOMALY":144.206,"EPHEMERIS_TYPE":0,"CLASSIFICATION_TYPE":"U","NORAD_CAT_ID":22803,"ELEMENT_SET_NO":999,"REV_AT_EPOCH":67961,"BSTAR":-4.55023e-5,"MEAN_MOTION_DOT":-1.4e-6,"MEAN_MOTION_DDOT":0},{"OBJECT_NAME":"ARIANE 40 R/B","OBJECT_ID":"1993-061H","EPOCH":"2026-03-10T02:49:16.918752","MEAN_MOTION":14.32861206,"ECCENTRICITY":0.00095805,"INCLINATION":98.4915,"RA_OF_ASC_NODE":137.9968,"ARG_OF_PERICENTER":283.6486,"MEAN_ANOMALY":76.3631,"EPHEMERIS_TYPE":0,"CLASSIFICATION_TYPE":"U","NORAD_CAT_ID":22830,"ELEMENT_SET_NO":999,"REV_AT_EPOCH":69416,"BSTAR":0.00010245483,"MEAN_MOTION_DOT":2.36e-6,"MEAN_MOTION_DDOT":0},{"OBJECT_NAME":"COSMOS 2278","OBJECT_ID":"1994-023A","EPOCH":"2026-03-10T05:37:16.985568","MEAN_MOTION":14.1437912,"ECCENTRICITY":0.00080679,"INCLINATION":71.0552,"RA_OF_ASC_NODE":173.9582,"ARG_OF_PERICENTER":12.1891,"MEAN_ANOMALY":347.9425,"EPHEMERIS_TYPE":0,"CLASSIFICATION_TYPE":"U","NORAD_CAT_ID":23087,"ELEMENT_SET_NO":999,"REV_AT_EPOCH":64488,"BSTAR":7.5170744e-5,"MEAN_MOTION_DOT":9.7e-7,"MEAN_MOTION_DDOT":0},{"OBJECT_NAME":"SL-16 R/B","OBJECT_ID":"1994-023B","EPOCH":"2026-03-10T03:20:14.580960","MEAN_MOTION":14.15011712,"ECCENTRICITY":0.00057171,"INCLINATION":70.9985,"RA_OF_ASC_NODE":69.9432,"ARG_OF_PERICENTER":285.2568,"MEAN_ANOMALY":74.7922,"EPHEMERIS_TYPE":0,"CLASSIFICATION_TYPE":"U","NORAD_CAT_ID":23088,"ELEMENT_SET_NO":999,"REV_AT_EPOCH":64615,"BSTAR":-0.00010092629,"MEAN_MOTION_DOT":-2.43e-6,"MEAN_MOTION_DDOT":0},{"OBJECT_NAME":"SL-16 R/B","OBJECT_ID":"1994-074B","EPOCH":"2026-03-10T01:23:07.022688","MEAN_MOTION":14.79408494,"ECCENTRICITY":0.00058172,"INCLINATION":97.7109,"RA_OF_ASC_NODE":99.8605,"ARG_OF_PERICENTER":208.9932,"MEAN_ANOMALY":178.9569,"EPHEMERIS_TYPE":0,"CLASSIFICATION_TYPE":"U","NORAD_CAT_ID":23343,"ELEMENT_SET_NO":999,"REV_AT_EPOCH":68730,"BSTAR":8.5870177e-5,"MEAN_MOTION_DOT":5.91e-6,"MEAN_MOTION_DDOT":0},{"OBJECT_NAME":"SL-16 R/B","OBJECT_ID":"1994-077B","EPOCH":"2026-03-10T04:35:17.696256","MEAN_MOTION":14.15561273,"ECCENTRICITY":0.00030672,"INCLINATION":70.9853,"RA_OF_ASC_NODE":351.4341,"ARG_OF_PERICENTER":211.4855,"MEAN_ANOMALY":148.6084,"EPHEMERIS_TYPE":0,"CLASSIFICATION_TYPE":"U","NORAD_CAT_ID":23405,"ELEMENT_SET_NO":999,"REV_AT_EPOCH":61630,"BSTAR":2.4297659e-5,"MEAN_MOTION_DOT":0,"MEAN_MOTION_DDOT":0},{"OBJECT_NAME":"ARIANE 40+ R/B","OBJECT_ID":"1995-021B","EPOCH":"2026-03-10T03:47:42.690336","MEAN_MOTION":14.39772837,"ECCENTRICITY":0.00076631,"INCLINATION":98.4495,"RA_OF_ASC_NODE":140.6344,"ARG_OF_PERICENTER":135.18,"MEAN_ANOMALY":254.0412,"EPHEMERIS_TYPE":0,"CLASSIFICATION_TYPE":"U","NORAD_CAT_ID":23561,"ELEMENT_SET_NO":999,"REV_AT_EPOCH":61931,"BSTAR":0.00012658114,"MEAN_MOTION_DOT":3.53e-6,"MEAN_MOTION_DDOT":0},{"OBJECT_NAME":"SL-16 R/B","OBJECT_ID":"1995-058B","EPOCH":"2026-03-10T06:27:10.257408","MEAN_MOTION":14.15495658,"ECCENTRICITY":0.00107735,"INCLINATION":71.0221,"RA_OF_ASC_NODE":179.039,"ARG_OF_PERICENTER":124.7322,"MEAN_ANOMALY":235.4818,"EPHEMERIS_TYPE":0,"CLASSIFICATION_TYPE":"U","NORAD_CAT_ID":23705,"ELEMENT_SET_NO":999,"REV_AT_EPOCH":56793,"BSTAR":0.00018909417,"MEAN_MOTION_DOT":3.22e-6,"MEAN_MOTION_DDOT":0},{"OBJECT_NAME":"SL-16 R/B","OBJECT_ID":"1996-051B","EPOCH":"2026-03-10T07:23:00.483072","MEAN_MOTION":14.1241589,"ECCENTRICITY":0.00150223,"INCLINATION":70.7604,"RA_OF_ASC_NODE":173.9309,"ARG_OF_PERICENTER":147.0802,"MEAN_ANOMALY":213.1256,"EPHEMERIS_TYPE":0,"CLASSIFICATION_TYPE":"U","NORAD_CAT_ID":24298,"ELEMENT_SET_NO":999,"REV_AT_EPOCH":52173,"BSTAR":8.3971986e-5,"MEAN_MOTION_DOT":1.06e-6,"MEAN_MOTION_DDOT":0},{"OBJECT_NAME":"ORBVIEW 2 (SEASTAR)","OBJECT_ID":"1997-037A","EPOCH":"2026-03-10T01:05:06.174240","MEAN_MOTION":14.35495267,"ECCENTRICITY":0.00030982,"INCLINATION":98.8568,"RA_OF_ASC_NODE":233.3664,"ARG_OF_PERICENTER":71.4417,"MEAN_ANOMALY":288.7104,"EPHEMERIS_TYPE":0,"CLASSIFICATION_TYPE":"U","NORAD_CAT_ID":24883,"ELEMENT_SET_NO":999,"REV_AT_EPOCH":50852,"BSTAR":0.00015062385,"MEAN_MOTION_DOT":3.87e-6,"MEAN_MOTION_DDOT":0},{"OBJECT_NAME":"SL-16 R/B","OBJECT_ID":"1998-043G","EPOCH":"2026-03-10T07:01:47.024832","MEAN_MOTION":14.26050094,"ECCENTRICITY":0.00101871,"INCLINATION":98.8253,"RA_OF_ASC_NODE":22.6605,"ARG_OF_PERICENTER":18.7243,"MEAN_ANOMALY":341.4309,"EPHEMERIS_TYPE":0,"CLASSIFICATION_TYPE":"U","NORAD_CAT_ID":25400,"ELEMENT_SET_NO":999,"REV_AT_EPOCH":43907,"BSTAR":6.7037419e-5,"MEAN_MOTION_DOT":1.15e-6,"MEAN_MOTION_DDOT":0},{"OBJECT_NAME":"SL-16 R/B","OBJECT_ID":"1998-045B","EPOCH":"2026-03-10T06:42:29.797920","MEAN_MOTION":14.16190283,"ECCENTRICITY":0.0006765,"INCLINATION":71.0118,"RA_OF_ASC_NODE":180.3337,"ARG_OF_PERICENTER":7.196,"MEAN_ANOMALY":352.9259,"EPHEMERIS_TYPE":0,"CLASSIFICATION_TYPE":"U","NORAD_CAT_ID":25407,"ELEMENT_SET_NO":999,"REV_AT_EPOCH":42718,"BSTAR":0.00012819211,"MEAN_MOTION_DOT":2.06e-6,"MEAN_MOTION_DDOT":0},{"OBJECT_NAME":"ISS (ZARYA)","OBJECT_ID":"1998-067A","EPOCH":"2026-03-10T03:48:27.801504","MEAN_MOTION":15.485572,"ECCENTRICITY":0.00079716,"INCLINATION":51.6324,"RA_OF_ASC_NODE":70.0375,"ARG_OF_PERICENTER":176.2903,"MEAN_ANOMALY":183.8146,"EPHEMERIS_TYPE":0,"CLASSIFICATION_TYPE":"U","NORAD_CAT_ID":25544,"ELEMENT_SET_NO":999,"REV_AT_EPOCH":55640,"BSTAR":0.00017625562,"MEAN_MOTION_DOT":9.13e-5,"MEAN_MOTION_DDOT":0},{"OBJECT_NAME":"CZ-4B R/B","OBJECT_ID":"1999-025C","EPOCH":"2026-03-10T01:58:37.854048","MEAN_MOTION":14.18265352,"ECCENTRICITY":0.00367159,"INCLINATION":98.6626,"RA_OF_ASC_NODE":113.3547,"ARG_OF_PERICENTER":345.4857,"MEAN_ANOMALY":43.2279,"EPHEMERIS_TYPE":0,"CLASSIFICATION_TYPE":"U","NORAD_CAT_ID":25732,"ELEMENT_SET_NO":999,"REV_AT_EPOCH":38822,"BSTAR":4.7799738e-5,"MEAN_MOTION_DOT":5.6e-7,"MEAN_MOTION_DDOT":0},{"OBJECT_NAME":"OKEAN-O","OBJECT_ID":"1999-039A","EPOCH":"2026-03-10T03:00:11.122272","MEAN_MOTION":14.80335846,"ECCENTRICITY":0.00012547,"INCLINATION":97.9441,"RA_OF_ASC_NODE":129.0122,"ARG_OF_PERICENTER":70.1592,"MEAN_ANOMALY":289.9755,"EPHEMERIS_TYPE":0,"CLASSIFICATION_TYPE":"U","NORAD_CAT_ID":25860,"ELEMENT_SET_NO":999,"REV_AT_EPOCH":43445,"BSTAR":0.00011093537,"MEAN_MOTION_DOT":7.94e-6,"MEAN_MOTION_DDOT":0},{"OBJECT_NAME":"SL-16 R/B","OBJECT_ID":"1999-039B","EPOCH":"2026-03-10T04:07:50.336832","MEAN_MOTION":14.81732333,"ECCENTRICITY":0.00135229,"INCLINATION":97.9966,"RA_OF_ASC_NODE":128.2682,"ARG_OF_PERICENTER":254.3522,"MEAN_ANOMALY":105.6199,"EPHEMERIS_TYPE":0,"CLASSIFICATION_TYPE":"U","NORAD_CAT_ID":25861,"ELEMENT_SET_NO":999,"REV_AT_EPOCH":43693,"BSTAR":9.6211642e-5,"MEAN_MOTION_DOT":7.05e-6,"MEAN_MOTION_DDOT":0},{"OBJECT_NAME":"DELTA 2 R/B","OBJECT_ID":"1999-041E","EPOCH":"2026-03-10T00:11:40.599456","MEAN_MOTION":14.11838777,"ECCENTRICITY":0.05024086,"INCLINATION":51.7624,"RA_OF_ASC_NODE":300.0088,"ARG_OF_PERICENTER":349.3726,"MEAN_ANOMALY":9.6894,"EPHEMERIS_TYPE":0,"CLASSIFICATION_TYPE":"U","NORAD_CAT_ID":25876,"ELEMENT_SET_NO":999,"REV_AT_EPOCH":36307,"BSTAR":0.00024629377,"MEAN_MOTION_DOT":1.293e-5,"MEAN_MOTION_DDOT":0}]
